1 48217C 21031H   22049.05702962 -.00000981  00000+0 -26487-2 0   491
2 48217  87.8911 243.7249 0002366 102.7397   4.9388 13.14503774    13
1 48217C 21031H   22049.35222637  .00001174  00000+0  31713-2 0   491
2 48217  87.8911 243.6660 0002367 102.4672 321.3522 13.14499005    10
1 48217C 21031H   22049.66970322 -.00004657  00000+0 -12577-1 0   493
2 48217  87.8911 243.6026 0002375 102.3862  22.9377 13.14505048    12
1 48217C 21031H   22049.89823331  .00001881  00000+0  50803-2 0   494
2 48217  87.8910 243.5570 0002381 102.1417  24.0214 13.14497672    11
1 48217C 21031H   22050.19829119 -.00002972  00000+0 -80267-2 0   502
2 48217  87.8910 243.4971 0002384 102.1008   3.1844 13.14502062    11
1 48217C 21031H   22050.48793241  .00000579  00000+0  15637-2 0   508
2 48217  87.8910 243.4392 0002395 101.8028 293.3406 13.14499490    15
1 48217C 21031H   22050.73660137 -.00003283  00000+0 -88673-2 0   500
2 48217  87.8910 243.3896 0002395 101.7279  29.4971 13.14500773    12
1 48217C 21031H   22051.03532823 -.00000247  00000+0 -66674-3 0   510
2 48217  87.8910 243.3299 0002407 101.7031   2.3480 13.14499466    10
1 48217C 21031H   22051.33121942  .00001137  00000+0  30696-2 0   510
2 48217  87.8911 243.2708 0002405 101.4218 322.0506 13.14495515    19
1 48217C 21031H   22051.55836063 -.00002045  00000+0 -55229-2 0   511
2 48217  87.8911 243.2254 0002419 101.2801 316.4496 13.14500664    13
1 48217C 21031H   22051.87786294  .00002279  00000+0  61544-2 0   510
2 48217  87.8912 243.1616 0002421 100.9479  27.8720 13.14494175    17
1 48217C 21031H   22052.17722638 -.00002329  00000+0 -62896-2 0   526
2 48217  87.8913 243.1018 0002423 100.8619   3.7915 13.14499119    13
1 48217C 21031H   22052.48081434  .00001408  00000+0  38019-2 0   527
2 48217  87.8914 243.0411 0002435 100.5778 359.8922 13.14496639    13
1 48217C 21031H   22052.77527778 -.00000528  00000+0 -14271-2 0   523
2 48217  87.8915 242.9823 0002430 100.3959 312.7394 13.14496219    18
1 48217C 21031H   22053.24406664 -.00000356  00000+0 -96179-3 0   534
2 48217  87.8916 242.8887 0002436  99.8583  10.4090 13.14496718    18
1 48217C 21031H   22053.38856897  .00003257  00000+0  87974-2 0   539
2 48217  87.8917 242.8598 0002440  99.6998 333.9908 13.14493964    12
1 48217C 21031H   22053.87958333  .00003805  00000+0  10275-1 0   539
2 48217  87.8919 242.7618 0002451  99.3737 136.5662 13.14493690    16
1 48217C 21031H   22053.87958333  .00003804  00000+0  10275-1 0   538
2 48217  87.8919 242.7618 0002451  99.3738 136.5661 13.14493690    16
1 48217C 21031H   22054.23310600 -.00000125  00000+0 -33653-3 0   541
2 48217  87.8921 242.6912 0002446  98.9040   9.0170 13.14497868    10
1 48217C 21031H   22054.52274721  .00000423  00000+0  11427-2 0   549
2 48217  87.8921 242.6334 0002456  98.5842 299.1899 13.14500057    10
1 48217C 21031H   22054.75336062 -.00000309  00000+0 -83539-3 0   540
2 48217  87.8923 242.5874 0002449  98.4996 309.9639 13.14498641    18
1 48217C 21031H   22055.07008516 -.00000032  00000+0 -85766-4 0   555
2 48217  87.8924 242.5242 0002457  98.2127   8.1950 13.14501311    14
1 48217C 21031H   22055.29722637  .00002180  00000+0  58874-2 0   558
2 48217  87.8924 242.4789 0002453  97.7819   2.8953 13.14497453    12
1 48217C 21031H   22055.59173611 -.00002110  00000+0 -56997-2 0   552
2 48217  87.8925 242.4201 0002460  97.6226 315.9332 13.14504172    17
1 48217C 21031H   22055.82368056  .00002454  00000+0  66287-2 0   559
2 48217  87.8926 242.3738 0002453  97.3320 333.2121 13.14498189    15
1 48217C 21031H   22056.21192544 -.00000558  00000+0 -15061-2 0   560
2 48217  87.8926 242.2964 0002456  96.9540   9.7943 13.14502287    19
1 48217C 21031H   22056.42517777  .00003387  00000+0  91458-2 0   567
2 48217  87.8926 242.2539 0002461  96.6672 298.6597 13.14500022    15
1 48217C 21031H   22056.73287451 -.00001208  00000+0 -32618-2 0   569
2 48217  87.8926 242.1926 0002455  96.5947 313.9876 13.14503271    11
1 48217C 21031H   22056.97668238  .00002278  00000+0  61528-2 0   569
2 48217  87.8926 242.1440 0002463  96.3739  27.2990 13.14502160    16
1 48217C 21031H   22056.97668238  .00002278  00000+0  61528-2 0   569
2 48217  87.8926 242.1440 0002463  96.3740  27.2989 13.14502160    16
1 48217C 21031H   22057.57574784 -.00002646  00000+0 -71457-2 0   572
2 48217  87.8925 242.0246 0002466  95.9038 341.0548 13.14507355    15
1 48217C 21031H   22057.89038610  .00002988  00000+0  80690-2 0   576
2 48217  87.8924 241.9619 0002463  95.5469  29.5036 13.14500647    14
1 48217C 21031H   22058.19113841 -.00001962  00000+0 -52990-2 0   586
2 48217  87.8923 241.9020 0002460  95.3774  12.0837 13.14505146    18
1 48217C 21031H   22058.40508517  .00002468  00000+0  66651-2 0   587
2 48217  87.8922 241.8593 0002465  95.1526 304.1742 13.14501571    17
1 48217C 21031H   22058.72805970 -.00002348  00000+0 -63421-2 0   586
2 48217  87.8921 241.7950 0002460  94.9772  31.8627 13.14504566    10
1 48217C 21031H   22059.02817545 -.00000881  00000+0 -23781-2 0   597
2 48217  87.8920 241.7352 0002466  94.9914  11.2473 13.14505086    18
1 48217C 21031H   22059.18031666 -.00002574  00000+0 -69517-2 0   594
2 48217  87.8919 241.7048 0002462  94.7854  11.0094 13.14504899    13
1 48217C 21031H   22059.48315230 -.00000319  00000+0 -86120-3 0   594
2 48217  87.8918 241.6445 0002471  94.6583   3.4002 13.14503988    12
1 48217C 21031H   22059.71793240 -.00002948  00000+0 -79617-2 0   593
2 48217  87.8917 241.5977 0002462  94.4248  34.0318 13.14503819    19
1 48217C 21031H   22060.01729582 -.00000873  00000+0 -23571-2 0   601
2 48217  87.8916 241.5380 0002468  94.4506   9.8459 13.14503502    14
1 48217C 21031H   22060.23060600 -.00001417  00000+0 -38275-2 0   606
2 48217  87.8915 241.4954 0002463  94.3164 298.8364 13.14501446    13
1 48217C 21031H   22060.54173611 -.00002931  00000+0 -79166-2 0   603
2 48217  87.8914 241.4334 0002472  94.1085 330.5320 13.14504508    12
1 48217C 21031H   22060.70705277 -.00003263  00000+0 -88113-2 0   601
2 48217  87.8914 241.4004 0002464  93.9211  32.5892 13.14502362    14
1 48217C 21031H   22061.00711064 -.00000576  00000+0 -15568-2 0   615
2 48217  87.8913 241.3405 0002469  93.9268  11.7063 13.14501372    13
1 48217C 21031H   22061.22036295 -.00001509  00000+0 -40745-2 0   617
2 48217  87.8913 241.2980 0002464  93.7873 300.4266 13.14499770    16
1 48217C 21031H   22061.22036295 -.00001509  00000+0 -40745-2 0   617
2 48217  87.8913 241.2980 0002464  93.7874 300.4266 13.14499770    17
1 48217C 21031H   22061.52944859 -.00002414  00000+0 -65184-2 0   614
2 48217  87.8913 241.2363 0002473  93.5462 322.4842 13.14502359    15
1 48217C 21031H   22061.84970323  .00002094  00000+0  56557-2 0   610
2 48217  87.8913 241.1724 0002469  93.2462  37.4342 13.14495617    13
1 48217C 21031H   22062.14906666 -.00002604  00000+0 -70320-2 0   627
2 48217  87.8913 241.1126 0002465  93.1628  13.3527 13.14500338    13
1 48217C 21031H   22062.44565230  .00001187  00000+0  32066-2 0   626
2 48217  87.8914 241.0534 0002472  92.8842 336.3318 13.14497662    19
1 48217C 21031H   22062.74638889 -.00000698  00000+0 -18864-2 0   628
2 48217  87.8915 240.9934 0002463  92.7631 318.7882 13.14497004    17
1 48217C 21031H   22063.06237683 -.00001506  00000+0 -40677-2 0   638
2 48217  87.8916 240.9302 0002467  92.5847  13.4251 13.14499922    18
1 48217C 21031H   22063.35757359  .00002945  00000+0  79529-2 0   631
2 48217  87.8918 240.8713 0002465  92.1570 329.9884 13.14494499    13
1 48217C 21031H   22063.67505045 -.00002586  00000+0 -69846-2 0   633
2 48217  87.8920 240.8079 0002463  91.9132  31.7345 13.14499527    17
1 48217C 21031H   22063.97927499  .00004033  00000+0  10893-1 0   631
2 48217  87.8922 240.7471 0002465  91.9050  30.5701 13.14496024    17
1 48217C 21031H   22064.20502729  .00002783  00000+0  75152-2 0   644
2 48217  87.8923 240.7021 0002460  91.6623  18.5090 13.14496616    11
1 48217C 21031H   22064.49466851  .00000800  00000+0  21603-2 0   640
2 48217  87.8925 240.6442 0002469  91.4593 308.5637 13.14502388    15
1 48217C 21031H   22064.81295554  .00002937  00000+0  79313-2 0   640
2 48217  87.8928 240.5807 0002461  91.1961  14.1727 13.14498743    19
1 48217C 21031H   22065.11718007 -.00001263  00000+0 -34103-2 0   659
2 48217  87.8930 240.5199 0002459  91.0281  13.1692 13.14504528    16
1 48217C 21031H   22065.56305556 -.00002209  00000+0 -59656-2 0   650
2 48217  87.8933 240.4309 0002460  90.5981 322.3707 13.14506948    14
1 48217C 21031H   22065.87834905  .00004043  00000+0  10919-1 0   653
2 48217  87.8936 240.3680 0002456  90.1854  13.9735 13.14500653    19
1 48217C 21031H   22066.16799026 -.00000564  00000+0 -15226-2 0   664
2 48217  87.8937 240.3102 0002451  89.9853 304.0350 13.14505145    17
1 48217C 21031H   22066.47921711  .00000579  00000+0  15625-2 0   663
2 48217  87.8939 240.2481 0002455  89.6316 336.3389 13.14506606    16
1 48217C 21031H   22066.79246943  .00002392  00000+0  64587-2 0   661
2 48217  87.8941 240.1856 0002444  89.2604  18.2489 13.14502873    17
1 48217C 21031H   22067.02099951 -.00000133  00000+0 -35801-3 0   675
2 48217  87.8942 240.1400 0002446  89.2679  19.0742 13.14507931    18
1 48217C 21031H   22067.31480740  .00003083  00000+0  83247-2 0   678
2 48217  87.8943 240.0815 0002439  88.8271 329.0916 13.14503341    11
1 48217C 21031H   22067.54472222 -.00002411  00000+0 -65106-2 0   679
2 48217  87.8944 240.0356 0002441  88.7572 336.5437 13.14510546    14
1 48217C 21031H   22067.85861527  .00003285  00000+0  88723-2 0   671
2 48217  87.8945 239.9730 0002434  88.4048  21.4671 13.14504023    18
1 48217C 21031H   22068.14692545 -.00001703  00000+0 -45985-2 0   685
2 48217  87.8945 239.9156 0002430  88.2947 305.1461 13.14508783    18
1 48217C 21031H   22068.45878888  .00000220  00000+0  59395-3 0   687
2 48217  87.8945 239.8534 0002432  88.0239 340.3819 13.14508710    19
